{"fetched_at":"2026-03-29T02:12:04Z","count":15717,"tles":[{"name":"STARLINK-11578 [DTC]","line1":"1 63014U 25032K   26087.40420916  .00216501  00000+0  16410-2 0  9993","line2":"2 63014  43.0032  82.8447 0002281 273.5161  86.5446 15.70928261 65105","category":"Starlink"}]}